{"type": "FeatureCollection", "features": [ {"type": "Feature", "properties": {"norad_id": 43010, "name": "FENGYUN 3D", "group": "weather", "lat": -0.9603594278117961, "lon": -31.77624538032545, "alt_km": 830.3738271691773, "timestamp": "2025-12-27T12:55:14.129338+00:00", "meta": {"OBJECT_NAME": "FENGYUN 3D", "OBJECT_ID": "2017-072A", "EPOCH": "2025-12-27T06:09:33.619968", "MEAN_MOTION": 14.19689473, "ECCENTRICITY": 0.00016299, "INCLINATION": 98.9917, "RA_OF_ASC_NODE": 327.7857, "ARG_OF_PERICENTER": 143.3546, "MEAN_ANOMALY": 216.7741, "EPHEMERIS_TYPE": 0, "CLASSIFICATION_TYPE": "U", "NORAD_CAT_ID": 43010, "ELEMENT_SET_NO": 999, "REV_AT_EPOCH": 42059, "BSTAR": 0.00028620763, "MEAN_MOTION_DOT": 5.59e-06, "MEAN_MOTION_DDOT": 0}, "tle": {"line1": "1 43010U 17072A   25361.25663912  .00000559  00000+0  28621-3 0  9996", "line2": "2 43010  98.9917 327.7857 0001629 143.3546 216.7741 14.19689473420596"}}, "geometry": {"type": "Point", "coordinates": [-31.77624538032545, -0.9603594278117961]}}, {"type": "Feature", "properties": {"norad_id": 43013, "name": "NOAA 20 (JPSS-1)", "group": "weather", "lat": 36.621646705765315, "lon": 124.2565088605645, "alt_km": 823.9731720300088, "timestamp": "2025-12-27T12:55:14.129349+00:00", "meta": {"OBJECT_NAME": "NOAA 20 (JPSS-1)", "OBJECT_ID": "2017-073A", "EPOCH": "2025-12-27T07:10:31.598112", "MEAN_MOTION": 14.19529744, "ECCENTRICITY": 0.00020471, "INCLINATION": 98.7617, "RA_OF_ASC_NODE": 297.4377, "ARG_OF_PERICENTER": 66.5484, "MEAN_ANOMALY": 293.5907, "EPHEMERIS_TYPE": 0, "CLASSIFICATION_TYPE": "U", "NORAD_CAT_ID": 43013, "ELEMENT_SET_NO": 999, "REV_AT_EPOCH": 42008, "BSTAR": 7.9520912e-05, "MEAN_MOTION_DOT": 1.24e-06, "MEAN_MOTION_DDOT": 0}, "tle": {"line1": "1 43013U 17073A   25361.29897683  .00000124  00000+0  79521-4 0  9992", "line2": "2 43013  98.7617 297.4377 0002047  66.5484 293.5907 14.19529744420081"}}, "geometry": {"type": "Point", "coordinates": [124.2565088605645, 36.621646705765315]}}, {"type": "Feature", "properties": {"norad_id": 43226, "name": "GOES 17", "group": "weather", "lat": 0.45493343491303057, "lon": -159.4653491008914, "alt_km": 35783.729816313244, "timestamp": "2025-12-27T12:55:14.129362+00:00", "meta": {"OBJECT_NAME": "GOES 17", "OBJECT_ID": "2018-022A", "EPOCH": "2025-12-27T05:39:55.783584", "MEAN_MOTION": 1.00271285, "ECCENTRICITY": 0.00032265, "INCLINATION": 0.4931, "RA_OF_ASC_NODE": 88.9971, "ARG_OF_PERICENTER": 191.2495, "MEAN_ANOMALY": 171.2067, "EPHEMERIS_TYPE": 0, "CLASSIFICATION_TYPE": "U", "NORAD_CAT_ID": 43226, "ELEMENT_SET_NO": 999, "REV_AT_EPOCH": 2870, "BSTAR": 0, "MEAN_MOTION_DOT": -1.6e-06, "MEAN_MOTION_DDOT": 0}, "tle": {"line1": "1 43226U 18022A   25361.23606231 -.00000160  00000+0  00000+0 0  9996", "line2": "2 43226   0.4931  88.9971 0003226 191.2495 171.2067  1.00271285 28709"}}, "geometry": {"type": "Point", "coordinates": [-159.4653491008914, 0.45493343491303057]}}, {"type": "Feature", "properties": {"norad_id": 43491, "name": "FENGYUN 2H", "group": "weather", "lat": -2.457650578873068, "lon": 9.435430613753748, "alt_km": 35792.34061338477, "timestamp": "2025-12-27T12:55:14.129375+00:00", "meta": {"OBJECT_NAME": "FENGYUN 2H", "OBJECT_ID": "2018-050A", "EPOCH": "2025-12-27T03:06:20.070144", "MEAN_MOTION": 1.00270024, "ECCENTRICITY": 0.00024987, "INCLINATION": 2.5857, "RA_OF_ASC_NODE": 81.1774, "ARG_OF_PERICENTER": 167.0859, "MEAN_ANOMALY": 333.5093, "EPHEMERIS_TYPE": 0, "CLASSIFICATION_TYPE": "U", "NORAD_CAT_ID": 43491, "ELEMENT_SET_NO": 999, "REV_AT_EPOCH": 2771, "BSTAR": 0, "MEAN_MOTION_DOT": -1.08e-06, "MEAN_MOTION_DDOT": 0}, "tle": {"line1": "1 43491U 18050A   25361.12939896 -.00000108  00000+0  00000+0 0  9997", "line2": "2 43491   2.5857  81.1774 0002498 167.0859 333.5093  1.00270024 27716"}}, "geometry": {"type": "Point", "coordinates": [9.435430613753748, -2.457650578873068]}}, {"type": "Feature", "properties": {"norad_id": 43689, "name": "METOP-C", "group": "weather", "lat": 27.49776025403762, "lon": 54.5130744707873, "alt_km": 818.7803875199043, "timestamp": "2025-12-27T12:55:14.129395+00:00", "meta": {"OBJECT_NAME": "METOP-C", "OBJECT_ID": "2018-087A", "EPOCH": "2025-12-27T06:01:57.847008", "MEAN_MOTION": 14.21489951, "ECCENTRICITY": 5.097e-05, "INCLINATION": 98.6909, "RA_OF_ASC_NODE": 58.7971, "ARG_OF_PERICENTER": 11.3019, "MEAN_ANOMALY": 348.817, "EPHEMERIS_TYPE": 0, "CLASSIFICATION_TYPE": "U", "NORAD_CAT_ID": 43689, "ELEMENT_SET_NO": 999, "REV_AT_EPOCH": 37040, "BSTAR": 9.0065758e-05, "MEAN_MOTION_DOT": 1.53e-06, "MEAN_MOTION_DDOT": 0}, "tle": {"line1": "1 43689U 18087A   25361.25136397  .00000153  00000+0  90066-4 0  9990", "line2": "2 43689  98.6909  58.7971 0000509  11.3019 348.8170 14.21489951370408"}}, "geometry": {"type": "Point", "coordinates": [54.5130744707873, 27.49776025403762]}}, {"type": "Feature", "properties": {"norad_id": 43823, "name": "GEO-KOMPSAT-2A", "group": "weather", "lat": -0.0245995241929793, "lon": 58.320353317691136, "alt_km": 35785.10212751277, "timestamp": "2025-12-27T12:55:14.129407+00:00", "meta": {"OBJECT_NAME": "GEO-KOMPSAT-2A", "OBJECT_ID": "2018-100A", "EPOCH": "2025-12-27T06:45:48.663072", "MEAN_MOTION": 1.00272243, "ECCENTRICITY": 3.264e-05, "INCLINATION": 0.0436, "RA_OF_ASC_NODE": 168.1676, "ARG_OF_PERICENTER": 299.8205, "MEAN_ANOMALY": 217.7331, "EPHEMERIS_TYPE": 0, "CLASSIFICATION_TYPE": "U", "NORAD_CAT_ID": 43823, "ELEMENT_SET_NO": 999, "REV_AT_EPOCH": 2590, "BSTAR": 0, "MEAN_MOTION_DOT": -3.21e-06, "MEAN_MOTION_DDOT": 0}, "tle": {"line1": "1 43823U 18100A   25361.28181323 -.00000321  00000+0  00000+0 0  9990", "line2": "2 43823   0.0436 168.1676 0000326 299.8205 217.7331  1.00272243 25907"}}, "geometry": {"type": "Point", "coordinates": [58.320353317691136, -0.0245995241929793]}}, {"type": "Feature", "properties": {"norad_id": 44387, "name": "METEOR-M2 2", "group": "weather", "lat": -69.7294896633291, "lon": 136.3471020792261, "alt_km": 818.9757263755564, "timestamp": "2025-12-27T12:55:14.129421+00:00", "meta": {"OBJECT_NAME": "METEOR-M2 2", "OBJECT_ID": "2019-038A", "EPOCH": "2025-12-27T06:41:04.814880", "MEAN_MOTION": 14.24299202, "ECCENTRICITY": 0.00018548, "INCLINATION": 98.8992, "RA_OF_ASC_NODE": 341.1864, "ARG_OF_PERICENTER": 120.934, "MEAN_ANOMALY": 239.2021, "EPHEMERIS_TYPE": 0, "CLASSIFICATION_TYPE": "U", "NORAD_CAT_ID": 44387, "ELEMENT_SET_NO": 999, "REV_AT_EPOCH": 33682, "BSTAR": 0.00029254641, "MEAN_MOTION_DOT": 6.3e-06, "MEAN_MOTION_DDOT": 0}, "tle": {"line1": "1 44387U 19038A   25361.27852795  .00000630  00000+0  29255-3 0  9993", "line2": "2 44387  98.8992 341.1864 0001854 120.9340 239.2021 14.24299202336823"}}, "geometry": {"type": "Point", "coordinates": [136.3471020792261, -69.7294896633291]}}, {"type": "Feature", "properties": {"norad_id": 47719, "name": "ARKTIKA-M 1", "group": "weather", "lat": 14.422154307331489, "lon": 89.4894567109227, "alt_km": 9827.196386330688, "timestamp": "2025-12-27T12:55:14.129435+00:00", "meta": {"OBJECT_NAME": "ARKTIKA-M 1", "OBJECT_ID": "2021-016A", "EPOCH": "2025-12-27T00:43:39.557280", "MEAN_MOTION": 2.00630341, "ECCENTRICITY": 0.72112825, "INCLINATION": 63.1774, "RA_OF_ASC_NODE": 82.0436, "ARG_OF_PERICENTER": 269.1745, "MEAN_ANOMALY": 15.5297, "EPHEMERIS_TYPE": 0, "CLASSIFICATION_TYPE": "U", "NORAD_CAT_ID": 47719, "ELEMENT_SET_NO": 999, "REV_AT_EPOCH": 3533, "BSTAR": 0, "MEAN_MOTION_DOT": -4.6e-07, "MEAN_MOTION_DDOT": 0}, "tle": {"line1": "1 47719U 21016A   25361.03031895 -.00000046  00000+0  00000+0 0  9993", "line2": "2 47719  63.1774  82.0436 7211282 269.1745  15.5297  2.00630341 35330"}}, "geometry": {"type": "Point", "coordinates": [89.4894567109227, 14.422154307331489]}}, {"type": "Feature", "properties": {"norad_id": 49008, "name": "FENGYUN 3E", "group": "weather", "lat": -23.890241785715947, "lon": 5.795006136053363, "alt_km": 831.8774279610152, "timestamp": "2025-12-27T12:55:14.129472+00:00", "meta": {"OBJECT_NAME": "FENGYUN 3E", "OBJECT_ID": "2021-062A", "EPOCH": "2025-12-27T06:16:09.675840", "MEAN_MOTION": 14.19883017, "ECCENTRICITY": 0.00010559, "INCLINATION": 98.7483, "RA_OF_ASC_NODE": 1.6103, "ARG_OF_PERICENTER": 182.1067, "MEAN_ANOMALY": 178.0105, "EPHEMERIS_TYPE": 0, "CLASSIFICATION_TYPE": "U", "NORAD_CAT_ID": 49008, "ELEMENT_SET_NO": 999, "REV_AT_EPOCH": 23218, "BSTAR": 0.00018071105, "MEAN_MOTION_DOT": 3.39e-06, "MEAN_MOTION_DDOT": 0}, "tle": {"line1": "1 49008U 21062A   25361.26122310  .00000339  00000+0  18071-3 0  9990", "line2": "2 49008  98.7483   1.6103 0001055 182.1067 178.0105 14.19883017232189"}}, "geometry": {"type": "Point", "coordinates": [5.795006136053363, -23.890241785715947]}}, {"type": "Feature", "properties": {"norad_id": 51850, "name": "GOES 18", "group": "weather", "lat": -0.0208631173255985, "lon": 153.0624749391656, "alt_km": 35788.21960054955, "timestamp": "2025-12-27T12:55:14.129493+00:00", "meta": {"OBJECT_NAME": "GOES 18", "OBJECT_ID": "2022-021A", "EPOCH": "2025-12-27T05:30:10.904832", "MEAN_MOTION": 1.00271611, "ECCENTRICITY": 5.445e-05, "INCLINATION": 0.0401, "RA_OF_ASC_NODE": 201.2118, "ARG_OF_PERICENTER": 109.1379, "MEAN_ANOMALY": 91.1546, "EPHEMERIS_TYPE": 0, "CLASSIFICATION_TYPE": "U", "NORAD_CAT_ID": 51850, "ELEMENT_SET_NO": 999, "REV_AT_EPOCH": 486, "BSTAR": 0, "MEAN_MOTION_DOT": 1.19e-06, "MEAN_MOTION_DDOT": 0}, "tle": {"line1": "1 51850U 22021A   25361.22929288  .00000119  00000+0  00000+0 0  9994", "line2": "2 51850   0.0401 201.2118 0000544 109.1379  91.1546  1.00271611  4867"}}, "geometry": {"type": "Point", "coordinates": [153.0624749391656, -0.0208631173255985]}}]}